{
  "type": "FeatureCollection",
  "name": "香港回归后疆域 (1997-1998)",
  "period": "prc_1997",
  "valid_from": 1997,
  "valid_to": 1998,
  "description": "用于地图页时间轴联动演示的香港回归后疆域 mock 数据。",
  "features": [
    {
      "type": "Feature",
      "id": "prc_1997_core",
      "properties": {
        "name": "共和国核心疆域",
        "admin_level": "empire",
        "year": 1997,
        "source": "Map Timeline Demo Mock"
      },
      "geometry": {
        "type": "Polygon",
        "coordinates": [
          [
            [74.0, 20.0],
            [83.0, 18.0],
            [111.0, 19.0],
            [121.0, 22.0],
            [124.0, 30.0],
            [132.0, 47.0],
            [123.0, 50.0],
            [109.0, 49.0],
            [93.0, 48.0],
            [79.0, 35.0],
            [74.0, 20.0]
          ]
        ]
      }
    },
    {
      "type": "Feature",
      "id": "prc_1997_tibet",
      "properties": {
        "name": "西藏高原区域",
        "admin_level": "province",
        "year": 1997,
        "source": "Map Timeline Demo Mock"
      },
      "geometry": {
        "type": "Polygon",
        "coordinates": [
          [
            [78.0, 26.0],
            [86.0, 26.0],
            [95.0, 31.0],
            [94.0, 36.0],
            [83.0, 37.0],
            [78.0, 32.0],
            [78.0, 26.0]
          ]
        ]
      }
    },
    {
      "type": "Feature",
      "id": "prc_1997_hong_kong",
      "properties": {
        "name": "香港特别行政区",
        "admin_level": "province",
        "year": 1997,
        "source": "Map Timeline Demo Mock"
      },
      "geometry": {
        "type": "Polygon",
        "coordinates": [
          [
            [113.82, 22.14],
            [114.34, 22.14],
            [114.34, 22.58],
            [113.82, 22.58],
            [113.82, 22.14]
          ]
        ]
      }
    }
  ]
}

