{
  "type": "FeatureCollection",
  "name": "北洋政府疆域 (1912-1928)",
  "period": "beiyang",
  "valid_from": 1912,
  "valid_to": 1928,
  "description": "用于地图页时间轴联动演示的北洋政府疆域 mock 数据。",
  "features": [
    {
      "type": "Feature",
      "id": "beiyang_core",
      "properties": {
        "name": "北洋政府控制区",
        "admin_level": "empire",
        "year": 1912,
        "source": "Map Timeline Demo Mock"
      },
      "geometry": {
        "type": "Polygon",
        "coordinates": [
          [
            [74.0, 27.0],
            [84.0, 18.0],
            [108.0, 18.0],
            [122.0, 21.0],
            [126.0, 33.0],
            [131.0, 47.0],
            [122.0, 50.0],
            [109.0, 49.0],
            [90.0, 48.0],
            [74.0, 44.0],
            [74.0, 27.0]
          ]
        ]
      }
    }
  ]
}

