{
  "type": "FeatureCollection",
  "name": "中华人民共和国成立初期疆域 (1949-1950)",
  "period": "prc_1949",
  "valid_from": 1949,
  "valid_to": 1950,
  "description": "用于地图页时间轴联动演示的中华人民共和国成立初期疆域 mock 数据。",
  "features": [
    {
      "type": "Feature",
      "id": "prc_1949_core",
      "properties": {
        "name": "共和国成立初期核心疆域",
        "admin_level": "empire",
        "year": 1949,
        "source": "Map Timeline Demo Mock"
      },
      "geometry": {
        "type": "Polygon",
        "coordinates": [
          [
            [82.0, 20.0],
            [92.0, 18.5],
            [111.0, 19.0],
            [121.0, 22.0],
            [124.0, 30.0],
            [132.0, 47.0],
            [123.0, 50.0],
            [109.0, 49.0],
            [93.0, 48.0],
            [84.0, 36.0],
            [82.0, 20.0]
          ]
        ]
      }
    }
  ]
}

