{
  "type": "FeatureCollection",
  "name": "宋朝 (960-1279)",
  "period": "宋朝",
  "valid_from": 960,
  "valid_to": 1279,
  "description": "Song Dynasty territorial extent, circa 1100 CE",
  "features": [
    {
      "type": "Feature",
      "id": "song_15",
      "properties": {
        "name": "Hainan",
        "admin_level": "empire",
        "year": 1100,
        "source": "historical-basemaps"
      },
      "geometry": {
        "type": "MultiPolygon",
        "coordinates": [
          [
            [
              [
                109.42965224693565,
                18.096622072417162
              ],
              [
                108.93858626793174,
                18.33060225125017
              ],
              [
                108.65192702720908,
                18.482448183257006
              ],
              [
                108.56047347496299,
                19.060296617705248
              ],
              [
                108.57689956138877,
                19.187371813017748
              ],
              [
                108.68497756431846,
                19.295583330351732
              ],
              [
                108.8736830086544,
                19.40395887966814
              ],
              [
                109.19816115806846,
                19.684140764433764
              ],
              [
                109.42011550377158,
                19.659205995757006
              ],
              [
                109.44225600670127,
                19.73547514553728
              ],
              [
                109.55032638023643,
                19.91355665798845
              ],
              [
                109.65765670250205,
                19.901086412627123
              ],
              [
                109.91588118980674,
                19.800006471831225
              ],
              [
                110.06061843345908,
                19.940053545195482
              ],
              [
                110.2583265633419,
                19.940475069243334
              ],
              [
                110.61735061119346,
                20.017461382109545
              ],
              [
                110.88536361168174,
                19.70678290005388
              ],
              [
                110.81180861900596,
                19.630410753447435
              ],
              [
                110.61250594566611,
                19.47118719692888
              ],
              [
                110.42703536461143,
                19.2294193136281
              ],
              [
                110.29871657799033,
                18.898843370634935
              ],
              [
                110.36146834800986,
                18.765576921660326
              ],
              [
                110.26251510093955,
                18.62562712307634
              ],
              [
                110.13131240318565,
                18.58723600979509
              ],
              [
                109.6690702767208,
                18.41473539944353
              ],
              [
                109.42965224693565,
                18.096622072417162
              ]
            ]
          ]
        ]
      }
    },
    {
      "type": "Feature",
      "id": "song_23",
      "properties": {
        "name": "Xixia",
        "admin_level": "empire",
        "year": 1100,
        "source": "historical-basemaps"
      },
      "geometry": {
        "type": "MultiPolygon",
        "coordinates": [
          [
            [
              [
                102.04374844726028,
                37.738080025488514
              ],
              [
                99.80230909509034,
                37.83996363240533
              ],
              [
                97.45898613600362,
                38.55314888082302
              ],
              [
                96.23638285300184,
                38.756916094656646
              ],
              [
                92.56857300399652,
                38.756916094656646
              ],
              [
                88.28946151349034,
                38.960683308490275
              ],
              [
                85.84425494748679,
                39.57198494999116
              ],
              [
                85.1310696990691,
                40.18328659149205
              ],
              [
                85.2045550866196,
                40.77116969189599
              ],
              [
                85.23295330598593,
                40.998355446826565
              ],
              [
                85.94613855440362,
                41.40588987449382
              ],
              [
                88.18757790657351,
                41.40588987449382
              ],
              [
                91.3459697209948,
                42.11907512291151
              ],
              [
                92.26292218324609,
                42.11907512291151
              ],
              [
                96.23638285300184,
                41.507773481410624
              ],
              [
                98.98724023975582,
                41.81342430216107
              ],
              [
                101.43244680575937,
                41.202122660660194
              ],
              [
                103.0625845164284,
                41.202122660660194
              ],
              [
                105.94242943243997,
                41.36826755966085
              ],
              [
                108.36053207610276,
                41.507773481410624
              ],
              [
                109.37936814527087,
                41.202122660660194
              ],
              [
                110.50008782135582,
                39.877635770741605
              ],
              [
                109.8887861798549,
                37.94184723932214
              ],
              [
                108.97183371760362,
                37.738080025488514
              ],
              [
                102.04374844726028,
                37.738080025488514
              ]
            ]
          ]
        ]
      }
    },
    {
      "type": "Feature",
      "id": "song_25",
      "properties": {
        "name": "Tibet",
        "admin_level": "empire",
        "year": 1100,
        "source": "historical-basemaps"
      },
      "geometry": {
        "type": "MultiPolygon",
        "coordinates": [
          [
            [
              [
                103.2032636187753,
                34.10534908924444
              ],
              [
                103.15486597443096,
                33.28258913539008
              ],
              [
                101.93645111029413,
                32.35086012163842
              ],
              [
                100.68658611286783,
                31.395081005959504
              ],
              [
                100.49299553549038,
                30.08834460866141
              ],
              [
                100.68162876825188,
                28.690961624015074
              ],
              [
                98.63722518394736,
                27.47874220486345
              ],
              [
                96.42759341056298,
                26.700509504555242
              ],
              [
                94.68027959177152,
                26.525778122676094
              ],
              [
                94.68028,
                26.52578
              ],
              [
                94.49169,
                26.50692
              ],
              [
                94.37080437652341,
                26.92137581951357
              ],
              [
                94.15290412637741,
                27.668462391442716
              ],
              [
                91.83027165606048,
                27.276754060666583
              ],
              [
                86.40928103127756,
                27.329678881032102
              ],
              [
                84.42849297445953,
                27.872957796321614
              ],
              [
                83.73995815744009,
                28.204841485100737
              ],
              [
                80.05398091946621,
                29.981535549447877
              ],
              [
                80.00657583407018,
                30.121527876586914
              ],
              [
                79.80756351070188,
                30.709232719747163
              ],
              [
                79.80756351070188,
                31.160874648573554
              ],
              [
                79.89636450053756,
                31.39767728813533
              ],
              [
                80.07854866799774,
                31.883501734695784
              ],
              [
                79.80756351070188,
                33.057770749644405
              ],
              [
                79.89789189646713,
                34.051382993062475
              ],
              [
                79.84528810679286,
                35.22517203402454
              ],
              [
                79.8331221393948,
                35.49664067331861
              ],
              [
                88.08569429965674,
                38.14561445315576
              ],
              [
                87.67815987198948,
                38.655032487739845
              ],
              [
                88.28946151349034,
                38.960683308490275
              ],
              [
                92.56857300399652,
                38.756916094656646
              ],
              [
                96.23638285300184,
                38.756916094656646
              ],
              [
                97.45898613600362,
                38.55314888082302
              ],
              [
                99.80230909509034,
                37.83996363240533
              ],
              [
                102.04374844726028,
                37.738080025488514
              ],
              [
                101.68757091375052,
                36.3073807256478
              ],
              [
                102.08804040560331,
                34.86569055497782
              ],
              [
                103.2032636187753,
                34.10534908924444
              ]
            ]
          ]
        ]
      }
    },
    {
      "type": "Feature",
      "id": "song_26",
      "properties": {
        "name": "Song Empire",
        "admin_level": "empire",
        "year": 1100,
        "source": "historical-basemaps"
      },
      "geometry": {
        "type": "MultiPolygon",
        "coordinates": [
          [
            [
              [
                101.21896020065596,
                26.990895370621487
              ],
              [
                100.68162876825188,
                28.690961624015074
              ],
              [
                100.49299553549038,
                30.08834460866141
              ],
              [
                100.68658611286783,
                31.395081005959504
              ],
              [
                101.93645111029413,
                32.35086012163842
              ],
              [
                103.15486597443096,
                33.28258913539008
              ],
              [
                103.2032636187753,
                34.10534908924444
              ],
              [
                102.08804040560331,
                34.86569055497782
              ],
              [
                101.68757091375052,
                36.3073807256478
              ],
              [
                102.04374844726028,
                37.738080025488514
              ],
              [
                108.97183371760362,
                37.738080025488514
              ],
              [
                109.8887861798549,
                37.94184723932214
              ],
              [
                110.50008782135582,
                39.877635770741605
              ],
              [
                111.41704028360716,
                39.57198494999116
              ],
              [
                115.69615177411335,
                39.57198494999116
              ],
              [
                117.51010318821041,
                38.76556942634748
              ],
              [
                117.43950179527549,
                38.60277136440935
              ],
              [
                117.47903731773643,
                38.449916444975756
              ],
              [
                117.58946517418174,
                38.28448065396013
              ],
              [
                117.84067061851768,
                38.16392096157732
              ],
              [
                118.20027450035361,
                38.04361303921404
              ],
              [
                118.74464705894736,
                38.063834749419115
              ],
              [
                118.8752470345333,
                37.949428163725756
              ],
              [
                118.86725905845908,
                37.70737417813005
              ],
              [
                118.8116484017208,
                37.446132265288256
              ],
              [
                118.83700087974815,
                37.204215608794115
              ],
              [
                118.95460036705283,
                37.07711752529802
              ],
              [
                119.28440383384971,
                37.04596670742693
              ],
              [
                119.59885695884971,
                37.11661871548357
              ],
              [
                119.9406996102169,
                37.35291250820818
              ],
              [
                120.16939071129111,
                37.57625540371599
              ],
              [
                120.41806319664268,
                37.67865713711443
              ],
              [
                120.65811446617393,
                37.73646505947771
              ],
              [
                120.78740218590049,
                37.70487555142107
              ],
              [
                121.18977645347861,
                37.42548330898943
              ],
              [
                121.43434432457236,
                37.336837373930834
              ],
              [
                121.89484694908408,
                37.37596472378435
              ],
              [
                122.05756667564658,
                37.3635631429738
              ],
              [
                122.26948836754111,
                37.30032309170427
              ],
              [
                122.39285567711143,
                37.3005748617238
              ],
              [
                122.28126815269736,
                36.98200567837419
              ],
              [
                122.25558761070518,
                36.7336917745656
              ],
              [
                121.9801283211544,
                36.822249971587084
              ],
              [
                121.84669784019736,
                36.86017569180193
              ],
              [
                121.60988143394736,
                36.834228121001146
              ],
              [
                120.85548690269736,
                36.58444937344255
              ],
              [
                120.53731063316611,
                36.386519991118334
              ],
              [
                120.50483230064658,
                36.055568300444506
              ],
              [
                120.26971724937705,
                35.98509558315935
              ],
              [
                120.20366958092002,
                36.03586538906755
              ],
              [
                120.19649032066611,
                36.156737886626146
              ],
              [
                120.13933852623252,
                36.19480093594255
              ],
              [
                119.91377547691611,
                36.14344366665544
              ],
              [
                119.97557357261924,
                35.93359717007341
              ],
              [
                119.90734389732627,
                35.768058382231615
              ],
              [
                119.68883040855674,
                35.5449710714406
              ],
              [
                119.06016066978721,
                35.04126700039568
              ],
              [
                119.00324538658408,
                34.939471803862475
              ],
              [
                119.02086165855674,
                34.6919322835988
              ],
              [
                119.29992202232627,
                34.59093054409685
              ],
              [
                119.62047866295127,
                34.369384371001146
              ],
              [
                119.97359755943565,
                34.13522299404802
              ],
              [
                120.14943221519736,
                33.894332491118334
              ],
              [
                120.34028151939658,
                33.33605536099138
              ],
              [
                120.64058974693565,
                33.04462393398943
              ],
              [
                120.7193861336544,
                32.84798391934099
              ],
              [
                120.66086104820518,
                32.543117128569506
              ],
              [
                120.7383070320919,
                32.46073492642107
              ],
              [
                121.05076125572471,
                32.328048311430834
              ],
              [
                121.23053267906455,
                32.061767183501146
              ],
              [
                121.4836683602169,
                31.948009096342943
              ],
              [
                121.6059599251583,
                31.827626787382982
              ],
              [
                121.64503768394736,
                31.688027940947435
              ],
              [
                121.62330916832236,
                31.618154131132982
              ],
              [
                121.26826766441611,
                31.452338777739428
              ],
              [
                121.3078871102169,
                31.42066343899431
              ],
              [
                121.49887374351768,
                31.28138693447771
              ],
              [
                121.64023116539268,
                30.926120363432787
              ],
              [
                121.63186934898643,
                30.7927680837697
              ],
              [
                121.56893447349815,
                30.710101686674975
              ],
              [
                121.32843306968955,
                30.69054754849138
              ],
              [
                121.03547194908408,
                30.594703279692553
              ],
              [
                120.6086683602169,
                30.346181474882982
              ],
              [
                120.2269316048458,
                30.25015028591814
              ],
              [
                119.94366744468955,
                30.116218172270678
              ],
              [
                120.26755050133018,
                30.0216499197072
              ],
              [
                120.43786147545127,
                29.99661024685564
              ],
              [
                120.86273482750205,
                30.187980257231615
              ],
              [
                121.0825224251583,
                30.213830553252123
              ],
              [
                121.15524581383018,
                30.18857916470232
              ],
              [
                121.39126876304893,
                29.922397218901537
              ],
              [
                121.56523421715049,
                29.846555315215014
              ],
              [
                121.77031997154502,
                29.834281526762865
              ],
              [
                121.77436355064658,
                29.7644534933156
              ],
              [
                121.67039016197471,
                29.624536119658373
              ],
              [
                121.4984388680294,
                29.522582613188646
              ],
              [
                121.36191085289268,
                29.4143501150197
              ],
              [
                121.41146377037315,
                29.344604097563646
              ],
              [
                121.55819991539268,
                29.357616029936693
              ],
              [
                121.64916518638877,
                29.319707475859545
              ],
              [
                121.56675246666221,
                29.173480592924975
              ],
              [
                121.43251326988486,
                28.836659990507982
              ],
              [
                121.34583571861533,
                28.544379793364428
              ],
              [
                121.3585234017208,
                28.3856635915822
              ],
              [
                121.25970748375205,
                28.182250581938646
              ],
              [
                121.16591170738486,
                28.124896608549975
              ],
              [
                121.00856307457236,
                28.276980959135912
              ],
              [
                120.94237807701377,
                28.213330827910326
              ],
              [
                120.68650344322471,
                27.86989554043474
              ],
              [
                120.50590041588096,
                27.59010466213884
              ],
              [
                120.40887740562705,
                27.310491167265795
              ],
              [
                120.3518095345333,
                27.177013002592943
              ],
              [
                120.08409408043174,
                26.985940538603685
              ],
              [
                119.97135451744346,
                26.788837038237475
              ],
              [
                119.85703566978721,
                26.706031404692553
              ],
              [
                119.6007109017208,
                26.692800127226732
              ],
              [
                119.42890456627158,
                26.590831361967943
              ],
              [
                119.55488875816611,
                26.26721342678728
              ],
              [
                119.43603042076377,
                26.03833922024431
              ],
              [
                119.47034743736533,
                25.77168234463396
              ],
              [
                119.42860701988486,
                25.650926195341967
              ],
              [
                119.33538344810752,
                25.530067049223803
              ],
              [
                119.09585860679893,
                25.440650545317553
              ],
              [
                119.02366927574424,
                25.31348570461931
              ],
              [
                118.94535354088096,
                25.135495744902514
              ],
              [
                118.81294539879111,
                24.8494144308156
              ],
              [
                118.53120711754111,
                24.690036379057787
              ],
              [
                118.34562972496299,
                24.467338167387865
              ],
              [
                118.12423995445518,
                24.53039129849138
              ],
              [
                117.92490676353721,
                24.561727129179857
              ],
              [
                117.86126235435752,
                24.510774217802904
              ],
              [
                117.79609206627158,
                24.42171438809099
              ],
              [
                117.84909347008018,
                24.047095857817553
              ],
              [
                117.75324538658408,
                23.983384691435717
              ],
              [
                117.40589431236533,
                23.6904731618947
              ],
              [
                117.24540236900596,
                23.632972322661303
              ],
              [
                116.96271041343955,
                23.556155763823412
              ],
              [
                116.7091322274044,
                23.34602316494646
              ],
              [
                116.45205977867393,
                23.250201784331225
              ],
              [
                116.40389541099815,
                23.199287019926928
              ],
              [
                116.40021804283408,
                22.983321748930834
              ],
              [
                116.34061721275596,
                22.91333159084978
              ],
              [
                116.08469680259971,
                22.8873782980031
              ],
              [
                115.86004928062705,
                22.83609541531267
              ],
              [
                115.70670607994346,
                22.638873659331225
              ],
              [
                115.54251388023643,
                22.695684038359545
              ],
              [
                115.30879500816611,
                22.771407686430834
              ],
              [
                115.18552688072471,
                22.745751939970873
              ],
              [
                115.04353621910361,
                22.599364839751146
              ],
              [
                114.84781173179893,
                22.510015093047045
              ],
              [
                114.55874923179893,
                22.46494825955095
              ],
              [
                114.53746322105674,
                22.674502931792162
              ],
              [
                114.30387404869346,
                22.64860113735857
              ],
              [
                113.9891386360958,
                22.552667223173998
              ],
              [
                113.84516433189658,
                22.463439546782396
              ],
              [
                113.71678451011924,
                22.482215486723803
              ],
              [
                113.53598311851768,
                22.704146944243334
              ],
              [
                113.46257308433799,
                22.7738529073781
              ],
              [
                113.37662032554893,
                22.646646105009935
              ],
              [
                113.41929152916221,
                22.570508562285326
              ],
              [
                113.39908889244346,
                22.475192629057787
              ],
              [
                113.37770369957236,
                22.16390761013689
              ],
              [
                113.28367904136924,
                22.03033026333513
              ],
              [
                113.09672072838096,
                21.97912176724138
              ],
              [
                112.87131026695518,
                22.061215959746264
              ],
              [
                112.81556228111533,
                21.934060655791185
              ],
              [
                112.8153333992794,
                21.826074205595873
              ],
              [
                112.74952224205283,
                21.756068788725756
              ],
              [
                112.47251418541221,
                21.73007734890642
              ],
              [
                112.3078642220333,
                21.678912721831225
              ],
              [
                112.03952315758018,
                21.65928991909685
              ],
              [
                111.8312025399044,
                21.754121385771654
              ],
              [
                111.73399642418174,
                21.70945509548845
              ],
              [
                111.53608230064658,
                21.49307211514177
              ],
              [
                111.43422225425986,
                21.461099230009935
              ],
              [
                111.0855970711544,
                21.479402147490404
              ],
              [
                110.74959853599815,
                21.37706335659685
              ],
              [
                110.56641677330283,
                21.230577074248217
              ],
              [
                110.36344436119346,
                21.242852770048998
              ],
              [
                110.23882583092002,
                21.28069647427263
              ],
              [
                110.23382094810752,
                21.25528486843767
              ],
              [
                110.20257094810752,
                21.096425615507982
              ],
              [
                110.07242873619346,
                20.91828878994646
              ],
              [
                110.07721999595908,
                20.867482744414232
              ],
              [
                110.29317000816611,
                20.582110964018725
              ],
              [
                110.41411879967002,
                20.5251956808156
              ],
              [
                110.43365767906455,
                20.436297975737475
              ],
              [
                110.27128890465049,
                20.315265260893725
              ],
              [
                109.92825606773643,
                20.2446723806447
              ],
              [
                109.71159652183799,
                20.568162523466967
              ],
              [
                109.6029310555294,
                20.87918051357927
              ],
              [
                109.60814956138877,
                21.057046495634935
              ],
              [
                109.78676131675986,
                21.406783662993334
              ],
              [
                109.77981856773643,
                21.482984148222826
              ],
              [
                109.51607802818565,
                21.596772752959154
              ],
              [
                109.41431716392783,
                21.56479414578142
              ],
              [
                109.32187941978721,
                21.4312015401906
              ],
              [
                109.11740401695518,
                21.39900930996599
              ],
              [
                108.81303695152549,
                21.493642412382982
              ],
              [
                108.55499556968955,
                21.823396288115404
              ],
              [
                108.46664718101768,
                21.78510435696306
              ],
              [
                108.45892623375205,
                21.708860002715014
              ],
              [
                108.38727096031455,
                21.53085287686052
              ],
              [
                108.26594069908408,
                21.47342451687517
              ],
              [
                108.1167021126583,
                21.498511873442553
              ],
              [
                107.9000273079708,
                21.47900541897478
              ],
              [
                107.8756132454708,
                21.462068163115404
              ],
              [
                107.78977492759971,
                21.402537904936693
              ],
              [
                107.41781142662315,
                21.18578680630388
              ],
              [
                106.58540025991904,
                22.91894011470515
              ],
              [
                105.18756703689463,
                25.829351906356514
              ],
              [
                102.9612753970534,
                26.79730479324399
              ],
              [
                101.21896020065596,
                26.990895370621487
              ]
            ]
          ]
        ]
      }
    },
    {
      "type": "Feature",
      "id": "song_36",
      "properties": {
        "name": "Liao",
        "admin_level": "empire",
        "year": 1100,
        "source": "historical-basemaps"
      },
      "geometry": {
        "type": "MultiPolygon",
        "coordinates": [
          [
            [
              [
                131.86515334556844,
                43.29038199063005
              ],
              [
                131.5842085213497,
                43.21272238369646
              ],
              [
                131.3567915291622,
                42.99385031338396
              ],
              [
                131.06461623619344,
                42.74924048062029
              ],
              [
                130.46761611412313,
                42.298785768706225
              ],
              [
                130.43509963463094,
                42.276759706694506
              ],
              [
                129.82471755455282,
                41.8613658773488
              ],
              [
                124.1107912821878,
                39.87540244263934
              ],
              [
                124.10407546470908,
                39.884784303862475
              ],
              [
                123.9165296883419,
                39.80788382168474
              ],
              [
                123.36642745445518,
                39.749389253813646
              ],
              [
                123.03905776451377,
                39.67220266934099
              ],
              [
                122.0274916024044,
                39.25575979824724
              ],
              [
                121.7431669564083,
                39.08944662686052
              ],
              [
                121.4884062142208,
                38.87860449429216
              ],
              [
                121.21647933433799,
                38.756957613188646
              ],
              [
                121.0653333992794,
                38.7502818929738
              ],
              [
                121.12369826744346,
                38.86512335415544
              ],
              [
                121.51177504967002,
                39.171859346587084
              ],
              [
                121.66015151451377,
                39.33151587124529
              ],
              [
                121.44896224449424,
                39.38210257168474
              ],
              [
                121.28217605064658,
                39.3498912679738
              ],
              [
                121.21334365318565,
                39.48363836880388
              ],
              [
                121.2394056649044,
                39.553832613188646
              ],
              [
                121.66813186119346,
                39.90540655728044
              ],
              [
                121.78898909996299,
                40.07807882900896
              ],
              [
                122.03651717613486,
                40.264037691313646
              ],
              [
                122.1079130501583,
                40.35372122402849
              ],
              [
                122.08235457847861,
                40.48801382656755
              ],
              [
                121.75361922691611,
                40.73695334072771
              ],
              [
                121.42673018883018,
                40.86432608242693
              ],
              [
                121.36801436851768,
                40.87061270352068
              ],
              [
                121.08527663658408,
                40.85723456021013
              ],
              [
                121.01060775230674,
                40.85068091030779
              ],
              [
                120.78842452476768,
                40.68381460781755
              ],
              [
                120.27274611900596,
                40.1517711507863
              ],
              [
                120.11272719810752,
                40.0811038839406
              ],
              [
                119.82381728599815,
                40.0421634542531
              ],
              [
                119.54778579185752,
                39.933044038969896
              ],
              [
                119.38549331138877,
                39.8434329855031
              ],
              [
                119.21067336509971,
                39.63902624722185
              ],
              [
                119.1494169564083,
                39.453979097563646
              ],
              [
                119.09059432457236,
                39.339103304106615
              ],
              [
                118.97764113853721,
                39.22413595791521
              ],
              [
                118.78126815269736,
                39.16635855313005
              ],
              [
                118.55933669517783,
                39.172286592680834
              ],
              [
                118.41243270347861,
                39.05088003750505
              ],
              [
                118.27459243248252,
                38.99961050625505
              ],
              [
                118.06992629478721,
                39.2541881429738
              ],
              [
                117.91011336754111,
                39.26024206753435
              ],
              [
                117.75288680504111,
                39.20253714199724
              ],
              [
                117.57505324791221,
                38.915336214262865
              ],
              [
                117.51010318821041,
                38.76556942634748
              ],
              [
                115.69615177411335,
                39.57198494999116
              ],
              [
                111.41704028360716,
                39.57198494999116
              ],
              [
                110.50008782135582,
                39.877635770741605
              ],
              [
                109.37936814527087,
                41.202122660660194
              ],
              [
                108.36053207610276,
                41.507773481410624
              ],
              [
                113.82828820536925,
                43.24673927424578
              ],
              [
                120.08357631770362,
                43.80414118524587
              ],
              [
                123.61378842070424,
                43.989941822245896
              ],
              [
                127.57753534337151,
                44.42347664191263
              ],
              [
                131.91288354003893,
                46.52921719457966
              ],
              [
                133.0276873620391,
                46.52921719457966
              ],
              [
                133.70895636437257,
                45.414413372579475
              ],
              [
                133.39928863603922,
                44.67121082457935
              ],
              [
                131.86515334556844,
                43.29038199063005
              ]
            ]
          ]
        ]
      }
    },
    {
      "type": "Feature",
      "id": "song_49",
      "properties": {
        "name": "Bulgar Khanate",
        "admin_level": "empire",
        "year": 1100,
        "source": "historical-basemaps"
      },
      "geometry": {
        "type": "MultiPolygon",
        "coordinates": [
          [
            [
              [
                21.35838432432736,
                44.772919896376166
              ],
              [
                22.07673912193364,
                44.4463949883733
              ],
              [
                22.337959048335946,
                44.772919896376166
              ],
              [
                22.6644839563388,
                44.64230993317503
              ],
              [
                22.46856901153707,
                44.38109000677272
              ],
              [
                22.925703882741104,
                44.18517506197101
              ],
              [
                22.925703882741104,
                43.793345172367566
              ],
              [
                23.51344871714626,
                44.05456509876987
              ],
              [
                24.231803514752542,
                43.793345172367566
              ],
              [
                24.623633404356,
                43.989260117169295
              ],
              [
                25.47259816516346,
                43.72804019076699
              ],
              [
                26.452172889172047,
                44.250480043571585
              ],
              [
                27.954187465985214,
                44.250480043571585
              ],
              [
                28.084797429186366,
                44.57700495157445
              ],
              [
                27.82357750278406,
                44.83822487797673
              ],
              [
                28.018606511859232,
                45.3154810971337
              ],
              [
                28.368347043023405,
                45.33088004715958
              ],
              [
                28.402156507925568,
                45.35938606658692
              ],
              [
                29.064372153194952,
                45.16474978597961
              ],
              [
                29.710764917834055,
                45.25833471890154
              ],
              [
                29.578961405260813,
                45.05750235195818
              ],
              [
                29.457522425158274,
                44.91514929409685
              ],
              [
                29.26158240745808,
                44.8954234945363
              ],
              [
                29.089749369128,
                44.875732027251146
              ],
              [
                28.918236765368235,
                44.76575049038591
              ],
              [
                28.686247858507883,
                44.48805197354021
              ],
              [
                28.57311347435261,
                44.19782217617693
              ],
              [
                28.529885324938547,
                43.843471132475756
              ],
              [
                28.51010611961628,
                43.74307592983904
              ],
              [
                28.480538401110422,
                43.592284761626146
              ],
              [
                28.44569304893757,
                43.476363741118334
              ],
              [
                28.328095468981516,
                43.437526308257006
              ],
              [
                28.18705848167683,
                43.450118623930834
              ],
              [
                28.034638437731516,
                43.39190252896013
              ],
              [
                27.887320551378977,
                43.0635257589406
              ],
              [
                27.86990836571003,
                42.79987677212419
              ],
              [
                27.836163553698313,
                42.7355228292531
              ],
              [
                27.654044184191477,
                42.68373831387224
              ],
              [
                27.501950296862375,
                42.51634558315935
              ],
              [
                27.494702372057688,
                42.40090139980974
              ],
              [
                23.730686077916616,
                42.175355571571515
              ],
              [
                23.26716444658213,
                42.048940581207574
              ],
              [
                22.49206641624714,
                40.498290621001146
              ],
              [
                22.602265390856516,
                40.39723929043474
              ],
              [
                22.48961738060261,
                40.23052557583513
              ],
              [
                22.467362436754954,
                40.11848028774919
              ],
              [
                22.525612864001047,
                40.064166628081225
              ],
              [
                22.55512908409382,
                39.986651979643725
              ],
              [
                22.695097956164133,
                39.83448370571794
              ],
              [
                21.58163124172954,
                39.68919409441392
              ],
              [
                20.090828928454172,
                39.602531038481615
              ],
              [
                20.028559717638743,
                39.813781343657396
              ],
              [
                19.80364898155476,
                40.01696356411638
              ],
              [
                19.36906722496296,
                40.260280214507006
              ],
              [
                19.380225214464915,
                40.32358130093279
              ],
              [
                19.483712229235422,
                40.295890413481615
              ],
              [
                19.494483026964915,
                40.40271719570818
              ],
              [
                19.339222940905344,
                40.588737093169115
              ],
              [
                19.5272550911739,
                40.865890108305834
              ],
              [
                19.445403131945383,
                40.964896761137865
              ],
              [
                19.529950174792063,
                41.218444429594896
              ],
              [
                19.41699126671101,
                41.3452525960988
              ],
              [
                19.49891570518757,
                41.523620210844896
              ],
              [
                19.61938384483601,
                41.55930288906755
              ],
              [
                19.606965097887766,
                41.76153906460466
              ],
              [
                19.520263064439053,
                41.782793043121515
              ],
              [
                19.87964,
                42.13967
              ],
              [
                18.89974,
                42.48164
              ],
              [
                18.88873,
                44.47077
              ],
              [
                16.81725,
                44.8202
              ],
              [
                16.856964947206585,
                44.3425748480773
              ],
              [
                16.80769549190238,
                44.935054867801526
              ],
              [
                17.337574592341113,
                45.13885452181643
              ],
              [
                17.82669376197687,
                45.13885452181643
              ],
              [
                17.9489735543858,
                44.81277507539258
              ],
              [
                19.785081820473508,
                44.93614220642296
              ],
              [
                20.29067094383346,
                44.89965639339698
              ],
              [
                20.31365692137966,
                44.90109301699363
              ],
              [
                20.705334508321627,
                44.64230993317503
              ],
              [
                20.994183465401093,
                44.70007972459091
              ],
              [
                21.35838432432736,
                44.772919896376166
              ]
            ]
          ],
          [
            [
              [
                19.338468395914436,
                41.86202057513317
              ],
              [
                19.33847,
                41.86202
              ],
              [
                19.34224360538263,
                41.8600002693489
              ],
              [
                19.338468395914436,
                41.86202057513317
              ]
            ]
          ],
          [
            [
              [
                19.143036875231516,
                41.93209036465349
              ],
              [
                19.140183716292118,
                41.95777751147957
              ],
              [
                19.14304,
                41.93209
              ],
              [
                19.263334916001707,
                41.88895913593492
              ],
              [
                19.143036875231516,
                41.93209036465349
              ]
            ]
          ],
          [
            [
              [
                18.513588938219797,
                42.362140260893725
              ],
              [
                18.24871161888386,
                42.52743872280779
              ],
              [
                18.001368555529368,
                42.694457613188646
              ],
              [
                17.73074214617992,
                42.82416681723133
              ],
              [
                18.00137,
                42.69446
              ],
              [
                18.24871,
                42.52744
              ],
              [
                18.51359,
                42.36214
              ],
              [
                18.51441426566344,
                42.361625176263374
              ],
              [
                18.513588938219797,
                42.362140260893725
              ]
            ]
          ],
          [
            [
              [
                17.595679316027415,
                42.888900362212084
              ],
              [
                17.56913366243691,
                42.90627477271949
              ],
              [
                17.59567980367362,
                42.88890012849706
              ],
              [
                17.595679316027415,
                42.888900362212084
              ]
            ]
          ],
          [
            [
              [
                17.07508758018757,
                43.22274740811052
              ],
              [
                16.99226287315632,
                43.32271536465349
              ],
              [
                16.639813456042063,
                43.389735780913256
              ],
              [
                16.63981410228473,
                43.38973921993156
              ],
              [
                16.99226,
                43.32272
              ],
              [
                17.07509,
                43.22275
              ],
              [
                17.29424724653311,
                43.08249625335418
              ],
              [
                17.07508758018757,
                43.22274740811052
              ]
            ]
          ],
          [
            [
              [
                16.70147612999226,
                43.84666021938982
              ],
              [
                16.804045043483697,
                44.09619607450184
              ],
              [
                16.70148,
                43.84666
              ],
              [
                16.71152,
                43.77133
              ],
              [
                16.711519944392272,
                43.771329704094924
              ],
              [
                16.70147612999226,
                43.84666021938982
              ]
            ]
          ]
        ]
      }
    },
    {
      "type": "Feature",
      "id": "song_56",
      "properties": {
        "name": "Ghana",
        "admin_level": "empire",
        "year": 1100,
        "source": "historical-basemaps"
      },
      "geometry": {
        "type": "MultiPolygon",
        "coordinates": [
          [
            [
              [
                -11.699497596589666,
                17.113655575993548
              ],
              [
                -7.833473886395026,
                17.636091212506344
              ],
              [
                -5.012321449225951,
                16.69570706678332
              ],
              [
                -4.803347194620827,
                15.546348666455174
              ],
              [
                -6.997576867974558,
                14.396990266127034
              ],
              [
                -8.878345159420618,
                14.292503138824479
              ],
              [
                -11.803984723892242,
                15.75532292106029
              ],
              [
                -11.90847185119479,
                16.38224568487565
              ],
              [
                -11.699497596589666,
                17.113655575993548
              ]
            ]
          ]
        ]
      }
    },
    {
      "type": "Feature",
      "id": "song_191",
      "properties": {
        "name": "Karkhanids",
        "admin_level": "empire",
        "year": 1100,
        "source": "historical-basemaps"
      },
      "geometry": {
        "type": "MultiPolygon",
        "coordinates": [
          [
            [
              [
                78.23447228507757,
                32.30899667921651
              ],
              [
                76.62918591018368,
                33.18927554933223
              ],
              [
                72.21038249693608,
                33.372102743188705
              ],
              [
                67.8842165896851,
                36.85156295178611
              ],
              [
                67.34224627509344,
                37.21287649484722
              ],
              [
                66.70994757473649,
                37.21287649484722
              ],
              [
                66.52929080320594,
                38.1161603525
              ],
              [
                64.63239470213507,
                38.838787438622234
              ],
              [
                63.72911084448229,
                39.47108613897919
              ],
              [
                63.12148843168218,
                39.80865414609036
              ],
              [
                62.32938153584051,
                39.76054130036801
              ],
              [
                60.960307855898435,
                44.07523092890854
              ],
              [
                60.07720005262979,
                45.31561361394992
              ],
              [
                60.06855468750001,
                45.416894531249994
              ],
              [
                60.036230468750006,
                45.52119140625
              ],
              [
                60.00029296875002,
                45.577685546874996
              ],
              [
                59.960546875,
                45.58642578125
              ],
              [
                59.88633059941199,
                45.58370224820089
              ],
              [
                59.81119011936403,
                45.689241968325916
              ],
              [
                85.2045550866196,
                40.77116969189599
              ],
              [
                85.1310696990691,
                40.18328659149205
              ],
              [
                85.84425494748679,
                39.57198494999116
              ],
              [
                88.28946151349034,
                38.960683308490275
              ],
              [
                87.67815987198948,
                38.655032487739845
              ],
              [
                88.08569429965674,
                38.14561445315576
              ],
              [
                79.8331221393948,
                35.49664067331861
              ],
              [
                79.84528810679286,
                35.22517203402454
              ],
              [
                79.89789189646713,
                34.051382993062475
              ],
              [
                79.80756351070188,
                33.057770749644405
              ],
              [
                80.07854866799774,
                31.883501734695784
              ],
              [
                79.89636450053756,
                31.39767728813533
              ],
              [
                78.23447228507757,
                32.30899667921651
              ]
            ]
          ]
        ]
      }
    },
    {
      "type": "Feature",
      "id": "song_192",
      "properties": {
        "name": "Mongols",
        "admin_level": "empire",
        "year": 1100,
        "source": "historical-basemaps"
      },
      "geometry": {
        "type": "MultiPolygon",
        "coordinates": [
          [
            [
              [
                105.94242943243997,
                41.36826755966085
              ],
              [
                98.81824973137188,
                55.429392845068904
              ],
              [
                99.53745541241915,
                55.2811223478262
              ],
              [
                99.48535412032993,
                55.65854236961009
              ],
              [
                107.9615110406255,
                59.8183896994711
              ],
              [
                114.0159088408366,
                59.54672904426065
              ],
              [
                115.20548227520561,
                57.386117039726635
              ],
              [
                116.96157547350965,
                59.88266776324234
              ],
              [
                127.80939535096982,
                61.80384030510338
              ],
              [
                137.17796706332177,
                61.33433849362306
              ],
              [
                142.72148001084966,
                59.23899962729002
              ],
              [
                142.35776809166217,
                59.140956484038256
              ],
              [
                141.92383864830282,
                58.94089468594255
              ],
              [
                141.59083083580282,
                58.727531038481615
              ],
              [
                141.34955886314657,
                58.50086554165544
              ],
              [
                140.99425795982626,
                58.39063223477068
              ],
              [
                140.58739760826376,
                58.239310823637865
              ],
              [
                140.49984267662313,
                58.17075689907732
              ],
              [
                140.0287428231075,
                57.64412649746599
              ],
              [
                139.29383376549032,
                57.33617743130388
              ],
              [
                138.86675551842,
                57.12446554775896
              ],
              [
                138.3459272713497,
                56.80420645352068
              ],
              [
                137.60193923424032,
                56.240348421294115
              ],
              [
                137.22909072349813,
                55.98272284146013
              ],
              [
                136.52126601646688,
                55.5898929464406
              ],
              [
                136.11939528892782,
                55.420646272856615
              ],
              [
                135.26954177330282,
                55.02874334927263
              ],
              [
                134.98522475670126,
                54.853934847075365
              ],
              [
                134.8937330574825,
                54.71992453213396
              ],
              [
                134.90200332115438,
                54.55941732998552
              ],
              [
                135.09450820396688,
                54.432784639555834
              ],
              [
                135.31255629967,
                54.413165651518725
              ],
              [
                135.72582534263876,
                54.4072643148488
              ],
              [
                136.19642165611532,
                54.47499807949724
              ],
              [
                136.49160293052938,
                54.4554935323781
              ],
              [
                136.34353164146688,
                53.88782843228044
              ],
              [
                136.35065749595907,
                53.70121344204607
              ],
              [
                136.48705581138876,
                53.65484198208513
              ],
              [
                136.77021316002157,
                53.695357881743334
              ],
              [
                137.04065993736532,
                53.862479768950365
              ],
              [
                137.38286879967,
                53.809806429106615
              ],
              [
                137.32575515220907,
                53.74305685635271
              ],
              [
                137.12172988365438,
                53.58943899746599
              ],
              [
                137.07131484459188,
                53.48947104092302
              ],
              [
                137.2392378182247,
                53.45651587124529
              ],
              [
                137.97939589927938,
                53.464583955962084
              ],
              [
                138.23403457115438,
                53.571586214262865
              ],
              [
                138.40946486900594,
                53.80512198086443
              ],
              [
                138.416804346545,
                54.091910921294115
              ],
              [
                138.76041701744344,
                54.08589132900896
              ],
              [
                139.05166152427938,
                54.08645971890154
              ],
              [
                139.37804702232626,
                54.08039435024919
              ],
              [
                139.80591872642782,
                53.961146913725756
              ],
              [
                140.10245803306844,
                53.80170401211443
              ],
              [
                140.32129958580282,
                53.53564795132341
              ],
              [
                140.7023268074825,
                53.27686270352068
              ],
              [
                140.8936567635372,
                53.197433077055834
              ],
              [
                141.1211958260372,
                53.05163153286638
              ],
              [
                141.08967116783407,
                52.98512228604021
              ],
              [
                140.82819655845907,
                52.825248323637865
              ],
              [
                141.03197768638876,
                52.726073824126146
              ],
              [
                141.09054091881063,
                52.58686407681169
              ],
              [
                140.93949416588094,
                52.261771761137865
              ],
              [
                141.1606245369747,
                52.20920523281755
              ],
              [
                141.2570600838497,
                52.10346182461443
              ],
              [
                141.1263227791622,
                51.8716197835988
              ],
              [
                140.96988967369344,
                51.6927982198781
              ],
              [
                140.730280909045,
                51.441302858549975
              ],
              [
                140.40453628013876,
                50.827384554106615
              ],
              [
                140.32349685142782,
                50.51783712979021
              ],
              [
                140.34884170006063,
                50.41921957607927
              ],
              [
                140.45699599693563,
                50.103988252837084
              ],
              [
                140.37220290611532,
                49.69127997036638
              ],
              [
                140.3282270760372,
                49.35787924404802
              ],
              [
                140.1465864510372,
                48.72439535732927
              ],
              [
                140.08100417564657,
                48.50260504360857
              ],
              [
                139.21370986412313,
                47.81061514492693
              ],
              [
                139.046687159045,
                47.6151500570363
              ],
              [
                138.94929030845907,
                47.3224254476613
              ],
              [
                138.6849928231075,
                47.13351400967302
              ],
              [
                138.35157302330282,
                46.873160921294115
              ],
              [
                138.24288466881063,
                46.71070440884294
              ],
              [
                137.98462966392782,
                46.26929052944841
              ],
              [
                137.720515284045,
                45.99668081875505
              ],
              [
                137.29691604088094,
                45.64631613369646
              ],
              [
                136.49410537193563,
                44.966029726225756
              ],
              [
                136.28505996177938,
                44.753043733794115
              ],
              [
                136.17924025963094,
                44.54676779385271
              ],
              [
                136.03397658775594,
                44.39840658779802
              ],
              [
                135.6928053231075,
                44.22396811123552
              ],
              [
                135.41475966881063,
                44.036830507475756
              ],
              [
                135.156062159045,
                43.72116430874529
              ],
              [
                134.96242812584188,
                43.51504477139177
              ],
              [
                134.5685835213497,
                43.21221502896013
              ],
              [
                134.13894179771688,
                42.99295385952654
              ],
              [
                133.31200698326376,
                42.77939184780779
              ],
              [
                132.95279982994344,
                42.669540010649584
              ],
              [
                132.82735732506063,
                42.86189993496599
              ],
              [
                132.59443191002157,
                42.89997442837419
              ],
              [
                132.48473647545126,
                42.880492769438646
              ],
              [
                132.33309462974813,
                42.963683687407396
              ],
              [
                132.18178847740438,
                43.19463690396013
              ],
              [
                131.88309768150594,
                43.071979128081225
              ],
              [
                131.67460158775594,
                43.026603304106615
              ],
              [
                131.86515334556844,
                43.29038199063005
              ],
              [
                133.39928863603922,
                44.67121082457935
              ],
              [
                133.70895636437257,
                45.414413372579475
              ],
              [
                133.0276873620391,
                46.52921719457966
              ],
              [
                131.91288354003893,
                46.52921719457966
              ],
              [
                127.57753534337151,
                44.42347664191263
              ],
              [
                123.61378842070424,
                43.989941822245896
              ],
              [
                120.08357631770362,
                43.80414118524587
              ],
              [
                113.82828820536925,
                43.24673927424578
              ],
              [
                108.36053207610276,
                41.507773481410624
              ],
              [
                105.94242943243997,
                41.36826755966085
              ]
            ]
          ]
        ]
      }
    },
    {
      "type": "Feature",
      "id": "song_212",
      "properties": {
        "name": "Korea",
        "admin_level": "empire",
        "year": 1100,
        "source": "historical-basemaps"
      },
      "geometry": {
        "type": "MultiPolygon",
        "coordinates": [
          [
            [
              [
                126.53212720746724,
                37.73065584772093
              ],
              [
                126.52140136396338,
                37.731681277573436
              ],
              [
                126.517212,
                37.755829
              ],
              [
                126.516098,
                37.761108
              ],
              [
                126.513893,
                37.765831
              ],
              [
                126.51053600000012,
                37.769989
              ],
              [
                126.500549,
                37.776657
              ],
              [
                126.495247,
                37.77971600000012
              ],
              [
                126.443604,
                37.806343
              ],
              [
                126.438026,
                37.81443800000011
              ],
              [
                126.433594,
                37.818054
              ],
              [
                126.42804,
                37.8211060000001
              ],
              [
                126.420258,
                37.821938
              ],
              [
                126.400543,
                37.818886
              ],
              [
                126.396942,
                37.816666
              ],
              [
                126.368042,
                37.790276
              ],
              [
                126.36665300000016,
                37.784721
              ],
              [
                126.364151,
                37.720268
              ],
              [
                126.37168006407182,
                37.62979709104954
              ],
              [
                126.33043197105674,
                37.66143377896013
              ],
              [
                126.2097196907833,
                37.75405081387224
              ],
              [
                126.05250075767783,
                37.60090597744646
              ],
              [
                125.90900710533408,
                37.51145514126482
              ],
              [
                125.74116805504111,
                37.78495367642107
              ],
              [
                125.56173995445518,
                37.83554800625505
              ],
              [
                125.26937392662315,
                37.48468359585466
              ],
              [
                125.18160537193565,
                37.65644415493669
              ],
              [
                125.07696059654502,
                37.770873628813646
              ],
              [
                124.76971724937705,
                37.93585547085466
              ],
              [
                124.69365981529502,
                38.13954123135271
              ],
              [
                124.73619368980674,
                38.27978094692888
              ],
              [
                124.92935470054893,
                38.46493872280779
              ],
              [
                125.26861098717002,
                38.56758078213396
              ],
              [
                125.29374221275596,
                38.68870123501482
              ],
              [
                125.02792647789268,
                38.81562002773943
              ],
              [
                125.21087935875205,
                39.211165987212084
              ],
              [
                125.29609206627158,
                39.36432608242693
              ],
              [
                125.20653823326377,
                39.485282503325365
              ],
              [
                124.92233565758018,
                39.61860617275896
              ],
              [
                124.85995772789268,
                39.61848028774919
              ],
              [
                124.68842605064658,
                39.60537680264177
              ],
              [
                124.54809096763877,
                39.541339479643725
              ],
              [
                124.44284347008018,
                39.57300528164568
              ],
              [
                124.2089872689083,
                39.738326631743334
              ],
              [
                124.13388350914268,
                39.84314306851091
              ],
              [
                124.1107912821878,
                39.87540244263934
              ],
              [
                129.82471755455282,
                41.8613658773488
              ],
              [
                129.64126113365438,
                41.655849062163256
              ],
              [
                129.59070876549032,
                41.46990545864763
              ],
              [
                129.63106826256063,
                41.277789674956225
              ],
              [
                129.56141189049032,
                41.07268866177263
              ],
              [
                129.47782424400594,
                40.682025514799975
              ],
              [
                129.17704299400594,
                40.63022192593279
              ],
              [
                129.01484206627157,
                40.52752264614763
              ],
              [
                128.79102614830282,
                40.35433920498552
              ],
              [
                128.446589502795,
                40.06586798306169
              ],
              [
                128.23623183677938,
                39.96959265347185
              ],
              [
                127.93131545494346,
                39.9562259542531
              ],
              [
                127.67152694175986,
                39.86643561001482
              ],
              [
                127.55238631675986,
                39.764159761626146
              ],
              [
                127.4407987923458,
                39.623656831938646
              ],
              [
                127.27688888023643,
                39.22168692227068
              ],
              [
                127.40455916832236,
                39.07533987637224
              ],
              [
                127.95601943443565,
                38.69407232876482
              ],
              [
                128.1441450447872,
                38.534633241850756
              ],
              [
                128.26961771449336,
                38.42048735945786
              ],
              [
                128.260529,
                38.411659
              ],
              [
                128.2435610000001,
                38.395271
              ],
              [
                128.224976,
                38.38166
              ],
              [
                128.200806,
                38.365547
              ],
              [
                128.17608600000017,
                38.349998
              ],
              [
                128.166077,
                38.34388000000013
              ],
              [
                128.150818,
                38.335266000000104
              ],
              [
                128.139984,
                38.330276
              ],
              [
                128.134155,
                38.328331
              ],
              [
                128.07995600000015,
                38.311935
              ],
              [
                128.054688,
                38.306656
              ],
              [
                128.01052900000013,
                38.30555
              ],
              [
                127.988037,
                38.306099
              ],
              [
                127.9713670000001,
                38.30832700000013
              ],
              [
                127.885269,
                38.31360600000011
              ],
              [
                127.676086,
                38.320274
              ],
              [
                127.661926,
                38.319160000000124
              ],
              [
                127.53749100000016,
                38.307495
              ],
              [
                127.45082100000013,
                38.312492000000134
              ],
              [
                127.366379,
                38.323326
              ],
              [
                127.251389,
                38.318886
              ],
              [
                127.197479,
                38.311935
              ],
              [
                127.133881,
                38.29916400000013
              ],
              [
                127.127762,
                38.297218
              ],
              [
                127.106087,
                38.28749800000014
              ],
              [
                127.095833,
                38.28082300000011
              ],
              [
                127.068047,
                38.259995
              ],
              [
                127.058029,
                38.253883
              ],
              [
                127.042213,
                38.246101000000124
              ],
              [
                127.005798,
                38.22924
              ],
              [
                126.99054,
                38.218048
              ],
              [
                126.982758,
                38.209435
              ],
              [
                126.972763,
                38.194153
              ],
              [
                126.966927,
                38.183052
              ],
              [
                126.9551090000001,
                38.154449
              ],
              [
                126.935257,
                38.12860100000012
              ],
              [
                126.824432,
                38.016106
              ],
              [
                126.80721300000016,
                38.000549
              ],
              [
                126.780273,
                37.97887400000013
              ],
              [
                126.766663,
                37.968323
              ],
              [
                126.745529,
                37.957771
              ],
              [
                126.727768,
                37.952492
              ],
              [
                126.688492,
                37.83390800000012
              ],
              [
                126.680542,
                37.684433
              ],
              [
                126.64137300000016,
                37.760551000000135
              ],
              [
                126.546654,
                37.763611
              ],
              [
                126.532761,
                37.762497
              ],
              [
                126.53212720746724,
                37.73065584772093
              ]
            ]
          ]
        ]
      }
    },
    {
      "type": "Feature",
      "id": "song_225",
      "properties": {
        "name": "Chauhans",
        "admin_level": "empire",
        "year": 1100,
        "source": "historical-basemaps"
      },
      "geometry": {
        "type": "MultiPolygon",
        "coordinates": [
          [
            [
              [
                76.30908035561204,
                27.045147438940386
              ],
              [
                74.1173958209184,
                26.544342617090322
              ],
              [
                72.62766425774089,
                28.366551993013818
              ],
              [
                77.06013118879203,
                29.420755243488284
              ],
              [
                79.8537096880478,
                27.970385081763993
              ],
              [
                78.55131883527947,
                27.630428226015034
              ],
              [
                76.30908035561204,
                27.045147438940386
              ]
            ]
          ]
        ]
      }
    },
    {
      "type": "Feature",
      "id": "song_226",
      "properties": {
        "name": "Chandellas",
        "admin_level": "empire",
        "year": 1100,
        "source": "historical-basemaps"
      },
      "geometry": {
        "type": "MultiPolygon",
        "coordinates": [
          [
            [
              [
                83.8225520331428,
                25.90984140438132
              ],
              [
                83.00861198482862,
                24.034515404914554
              ],
              [
                79.67974730319635,
                23.532175199662824
              ],
              [
                78.55131883527947,
                27.630428226015034
              ],
              [
                79.8537096880478,
                27.970385081763993
              ],
              [
                83.8225520331428,
                25.90984140438132
              ]
            ]
          ]
        ]
      }
    }
  ]
}