{
  "type": "FeatureCollection",
  "name": "秦朝 (前221-前206)",
  "period": "秦朝",
  "valid_from": -221,
  "valid_to": -206,
  "description": "Qin Dynasty territorial extent, circa 前200 CE",
  "features": [
    {
      "type": "Feature",
      "id": "qin_154",
      "properties": {
        "name": "Sambian-Nothangian culture",
        "admin_level": "province",
        "year": -200,
        "source": "historical-basemaps"
      },
      "geometry": {
        "type": "MultiPolygon",
        "coordinates": [
          [
            [
              [
                21.163130710521042,
                54.899357283106404
              ],
              [
                21.32699914177832,
                54.800944702562916
              ],
              [
                21.48165452666879,
                54.43566231453169
              ],
              [
                21.52506224292262,
                54.333137114627334
              ],
              [
                21.121600370221273,
                54.011092777592026
              ],
              [
                20.219312909452817,
                54.14450845924961
              ],
              [
                19.913670163055254,
                54.394238522394225
              ],
              [
                19.914581807227407,
                54.394662508857884
              ],
              [
                19.817505400323594,
                54.4619724075029
              ],
              [
                19.83265380560191,
                54.46945429810502
              ],
              [
                19.935186,
                54.493874
              ],
              [
                19.961820747549393,
                54.529463792377925
              ],
              [
                20.04175289695268,
                54.55966389058645
              ],
              [
                20.404999,
                54.6827770000001
              ],
              [
                20.084277343750017,
                54.673144531249996
              ],
              [
                19.981386,
                54.705494
              ],
              [
                19.9008290000001,
                54.628326
              ],
              [
                19.872772,
                54.64222000000012
              ],
              [
                19.959438,
                54.76416
              ],
              [
                19.942570719225653,
                54.84985693569841
              ],
              [
                19.969440000000134,
                54.9574970000001
              ],
              [
                20.785275,
                54.941658
              ],
              [
                20.870274,
                54.900826
              ],
              [
                20.98444,
                54.892494
              ],
              [
                21.090275,
                54.894997
              ],
              [
                21.163130710521042,
                54.899357283106404
              ]
            ]
          ]
        ]
      }
    },
    {
      "type": "Feature",
      "id": "qin_169",
      "properties": {
        "name": "Zhangzhung Kingdom",
        "admin_level": "empire",
        "year": -200,
        "source": "historical-basemaps"
      },
      "geometry": {
        "type": "MultiPolygon",
        "coordinates": [
          [
            [
              [
                75.59966909604243,
                37.53716144400912
              ],
              [
                80.53490417409674,
                36.167572953909854
              ],
              [
                84.39731528858971,
                35.39440548108133
              ],
              [
                83.24472307510071,
                27.38877756752422
              ],
              [
                81.95674604083719,
                27.816706896701795
              ],
              [
                78.86872967974088,
                29.326403784348877
              ],
              [
                76.60418434827025,
                31.041968429402388
              ],
              [
                75.76208435453725,
                32.22936026678509
              ],
              [
                74.75078206472305,
                33.655333539541765
              ],
              [
                74.22724769332301,
                34.178867910941804
              ],
              [
                74.75137453161247,
                36.5317752935736
              ],
              [
                75.59966909604243,
                37.53716144400912
              ]
            ]
          ]
        ]
      }
    },
    {
      "type": "Feature",
      "id": "qin_170",
      "properties": {
        "name": "Han Empire",
        "admin_level": "empire",
        "year": -200,
        "source": "historical-basemaps"
      },
      "geometry": {
        "type": "MultiPolygon",
        "coordinates": [
          [
            [
              [
                121.41804269444754,
                29.345187488350778
              ],
              [
                120.09099489380135,
                28.88208868613704
              ],
              [
                117.40084173090024,
                27.207665363553943
              ],
              [
                116.54252928511586,
                27.74808431089966
              ],
              [
                116.06217118450088,
                27.679461725097518
              ],
              [
                114.8955872258645,
                25.895274494241875
              ],
              [
                113.57795827078994,
                22.927841973387793
              ],
              [
                111.25738260457786,
                22.838690924405995
              ],
              [
                110.84685466353822,
                24.865935707209772
              ],
              [
                109.61164811909971,
                26.581500352263276
              ],
              [
                108.17057381725476,
                27.54221655349324
              ],
              [
                105.08255745615845,
                28.02257465410822
              ],
              [
                102.9552572962921,
                28.02257465410822
              ],
              [
                102.13178626666642,
                28.02257465410822
              ],
              [
                101.5828055802493,
                28.70880051212962
              ],
              [
                101.65142816605145,
                29.532271541755307
              ],
              [
                102.51092792846343,
                31.499570997942744
              ],
              [
                103.44431541698222,
                33.63599124944133
              ],
              [
                103.62026602801377,
                34.038722648024674
              ],
              [
                104.73944452714774,
                36.60039787937575
              ],
              [
                104.67082194134561,
                36.80626563678217
              ],
              [
                104.39633159813705,
                37.01213339418859
              ],
              [
                104.39633159813705,
                37.21800115159501
              ],
              [
                105.15118004196059,
                37.62973666640785
              ],
              [
                106.04327365738834,
                37.561114080605726
              ],
              [
                106.0432736573884,
                37.561114080605705
              ],
              [
                106.0432736573884,
                37.56111408060572
              ],
              [
                106.04327365738841,
                37.56111408060572
              ],
              [
                106.79812210121196,
                39.13943355405494
              ],
              [
                107.20985761602479,
                41.74709181453627
              ],
              [
                107.62159313083764,
                42.090204743546956
              ],
              [
                109.0829788596452,
                42.11770781286152
              ],
              [
                111.50288470624385,
                41.81936325643155
              ],
              [
                113.31781409119286,
                41.59560483910907
              ],
              [
                114.53997681919127,
                41.55573025125929
              ],
              [
                118.54617157614459,
                41.425023135815586
              ],
              [
                120.4727838336601,
                41.68286056767574
              ],
              [
                122.5002112412945,
                41.80957478065288
              ],
              [
                123.74790079434061,
                41.678469228734116
              ],
              [
                124.0910137233513,
                41.26673371392129
              ],
              [
                124.10407546470906,
                39.884784303862475
              ],
              [
                123.91652968834187,
                39.80788382168474
              ],
              [
                123.36642745445515,
                39.749389253813646
              ],
              [
                123.03905776451374,
                39.67220266934099
              ],
              [
                122.02749160240437,
                39.25575979824724
              ],
              [
                121.74316695640827,
                39.08944662686052
              ],
              [
                121.48840621422077,
                38.87860449429216
              ],
              [
                121.21647933433796,
                38.756957613188646
              ],
              [
                121.06533339927937,
                38.7502818929738
              ],
              [
                121.12369826744343,
                38.86512335415544
              ],
              [
                121.51177504966999,
                39.171859346587084
              ],
              [
                121.66015151451374,
                39.33151587124529
              ],
              [
                121.44896224449421,
                39.38210257168474
              ],
              [
                121.28217605064656,
                39.3498912679738
              ],
              [
                121.21334365318562,
                39.48363836880388
              ],
              [
                121.23940566490437,
                39.553832613188646
              ],
              [
                121.66813186119343,
                39.90540655728044
              ],
              [
                121.78898909996296,
                40.07807882900896
              ],
              [
                122.03651717613484,
                40.264037691313646
              ],
              [
                122.10791305015827,
                40.35372122402849
              ],
              [
                122.08235457847859,
                40.48801382656755
              ],
              [
                121.75361922691609,
                40.73695334072771
              ],
              [
                121.42673018883015,
                40.86432608242693
              ],
              [
                121.36801436851765,
                40.87061270352068
              ],
              [
                121.08527663658406,
                40.85723456021013
              ],
              [
                121.01060775230671,
                40.85068091030779
              ],
              [
                120.78842452476765,
                40.68381460781755
              ],
              [
                120.27274611900593,
                40.1517711507863
              ],
              [
                120.11272719810749,
                40.0811038839406
              ],
              [
                119.82381728599812,
                40.0421634542531
              ],
              [
                119.54778579185749,
                39.933044038969896
              ],
              [
                119.38549331138874,
                39.8434329855031
              ],
              [
                119.21067336509968,
                39.63902624722185
              ],
              [
                119.14941695640827,
                39.453979097563646
              ],
              [
                119.09059432457234,
                39.339103304106615
              ],
              [
                118.97764113853718,
                39.22413595791521
              ],
              [
                118.78126815269734,
                39.16635855313005
              ],
              [
                118.5593366951778,
                39.172286592680834
              ],
              [
                118.41243270347859,
                39.05088003750505
              ],
              [
                118.27459243248249,
                38.99961050625505
              ],
              [
                118.06992629478718,
                39.2541881429738
              ],
              [
                117.91011336754109,
                39.26024206753435
              ],
              [
                117.75288680504109,
                39.20253714199724
              ],
              [
                117.57505324791218,
                38.915336214262865
              ],
              [
                117.51010318821041,
                38.76556942634748
              ],
              [
                117.43950179527546,
                38.60277136440935
              ],
              [
                117.4790373177364,
                38.449916444975756
              ],
              [
                117.58946517418171,
                38.28448065396013
              ],
              [
                117.84067061851765,
                38.16392096157732
              ],
              [
                118.20027450035359,
                38.04361303921404
              ],
              [
                118.74464705894734,
                38.063834749419115
              ],
              [
                118.87524703453327,
                37.949428163725756
              ],
              [
                118.86725905845906,
                37.70737417813005
              ],
              [
                118.81164840172077,
                37.446132265288256
              ],
              [
                118.83700087974812,
                37.204215608794115
              ],
              [
                118.9546003670528,
                37.07711752529802
              ],
              [
                119.28440383384968,
                37.04596670742693
              ],
              [
                119.59885695884968,
                37.11661871548357
              ],
              [
                119.94069961021687,
                37.35291250820818
              ],
              [
                120.16939071129109,
                37.57625540371599
              ],
              [
                120.41806319664265,
                37.67865713711443
              ],
              [
                120.6581144661739,
                37.73646505947771
              ],
              [
                120.78740218590046,
                37.70487555142107
              ],
              [
                121.18977645347859,
                37.42548330898943
              ],
              [
                121.43434432457234,
                37.336837373930834
              ],
              [
                121.89484694908406,
                37.37596472378435
              ],
              [
                122.05756667564656,
                37.3635631429738
              ],
              [
                122.26948836754109,
                37.30032309170427
              ],
              [
                122.3928556771114,
                37.3005748617238
              ],
              [
                122.28126815269734,
                36.98200567837419
              ],
              [
                122.25558761070515,
                36.7336917745656
              ],
              [
                121.98012832115437,
                36.822249971587084
              ],
              [
                121.84669784019734,
                36.86017569180193
              ],
              [
                121.60988143394734,
                36.834228121001146
              ],
              [
                120.85548690269734,
                36.58444937344255
              ],
              [
                120.53731063316609,
                36.386519991118334
              ],
              [
                120.50483230064656,
                36.055568300444506
              ],
              [
                120.26971724937702,
                35.98509558315935
              ],
              [
                120.20366958091999,
                36.03586538906755
              ],
              [
                120.19649032066609,
                36.156737886626146
              ],
              [
                120.13933852623249,
                36.19480093594255
              ],
              [
                119.91377547691609,
                36.14344366665544
              ],
              [
                119.97557357261921,
                35.93359717007341
              ],
              [
                119.90734389732624,
                35.768058382231615
              ],
              [
                119.68883040855671,
                35.5449710714406
              ],
              [
                119.06016066978718,
                35.04126700039568
              ],
              [
                119.00324538658406,
                34.939471803862475
              ],
              [
                119.02086165855671,
                34.6919322835988
              ],
              [
                119.29992202232624,
                34.59093054409685
              ],
              [
                119.62047866295124,
                34.369384371001146
              ],
              [
                119.97359755943562,
                34.13522299404802
              ],
              [
                120.14943221519734,
                33.894332491118334
              ],
              [
                120.34028151939656,
                33.33605536099138
              ],
              [
                120.64058974693562,
                33.04462393398943
              ],
              [
                120.71938613365437,
                32.84798391934099
              ],
              [
                120.66086104820515,
                32.543117128569506
              ],
              [
                120.73830703209187,
                32.46073492642107
              ],
              [
                121.05076125572468,
                32.328048311430834
              ],
              [
                121.23053267906452,
                32.061767183501146
              ],
              [
                121.48366836021687,
                31.948009096342943
              ],
              [
                121.60595992515827,
                31.827626787382982
              ],
              [
                121.64503768394734,
                31.688027940947435
              ],
              [
                121.62330916832234,
                31.618154131132982
              ],
              [
                121.26826766441609,
                31.452338777739428
              ],
              [
                121.30788711021687,
                31.42066343899431
              ],
              [
                121.49887374351765,
                31.28138693447771
              ],
              [
                121.64023116539265,
                30.926120363432787
              ],
              [
                121.6318693489864,
                30.7927680837697
              ],
              [
                121.56893447349812,
                30.710101686674975
              ],
              [
                121.32843306968952,
                30.69054754849138
              ],
              [
                121.03547194908406,
                30.594703279692553
              ],
              [
                120.60866836021687,
                30.346181474882982
              ],
              [
                120.22693160484577,
                30.25015028591814
              ],
              [
                119.94366744468952,
                30.116218172270678
              ],
              [
                120.26755050133015,
                30.0216499197072
              ],
              [
                120.43786147545124,
                29.99661024685564
              ],
              [
                120.86273482750202,
                30.187980257231615
              ],
              [
                121.08252242515827,
                30.213830553252123
              ],
              [
                121.15524581383015,
                30.18857916470232
              ],
              [
                121.3912687630489,
                29.922397218901537
              ],
              [
                121.56523421715046,
                29.846555315215014
              ],
              [
                121.77031997154499,
                29.834281526762865
              ],
              [
                121.77436355064656,
                29.7644534933156
              ],
              [
                121.67039016197468,
                29.624536119658373
              ],
              [
                121.49843886802937,
                29.522582613188646
              ],
              [
                121.36191085289265,
                29.4143501150197
              ],
              [
                121.41146377037312,
                29.344604097563646
              ],
              [
                121.41804269444754,
                29.345187488350778
              ]
            ]
          ]
        ]
      }
    }
  ]
}