{
  "type": "FeatureCollection",
  "name": "唐朝 (618-907)",
  "period": "唐朝",
  "valid_from": 618,
  "valid_to": 907,
  "description": "Tang Dynasty territorial extent, circa 700 CE",
  "features": [
    {
      "type": "Feature",
      "id": "tang_6",
      "properties": {
        "name": "Hainan",
        "admin_level": "empire",
        "year": 700,
        "source": "historical-basemaps"
      },
      "geometry": {
        "type": "MultiPolygon",
        "coordinates": [
          [
            [
              [
                109.42965224693562,
                18.096622072417162
              ],
              [
                108.93858626793171,
                18.33060225125017
              ],
              [
                108.65192702720906,
                18.482448183257006
              ],
              [
                108.56047347496296,
                19.060296617705248
              ],
              [
                108.57689956138874,
                19.187371813017748
              ],
              [
                108.68497756431843,
                19.295583330351732
              ],
              [
                108.87368300865437,
                19.40395887966814
              ],
              [
                109.19816115806843,
                19.684140764433764
              ],
              [
                109.42011550377156,
                19.659205995757006
              ],
              [
                109.44225600670124,
                19.73547514553728
              ],
              [
                109.5503263802364,
                19.91355665798845
              ],
              [
                109.65765670250202,
                19.901086412627123
              ],
              [
                109.91588118980671,
                19.800006471831225
              ],
              [
                110.06061843345906,
                19.940053545195482
              ],
              [
                110.25832656334187,
                19.940475069243334
              ],
              [
                110.61735061119343,
                20.017461382109545
              ],
              [
                110.88536361168171,
                19.70678290005388
              ],
              [
                110.81180861900593,
                19.630410753447435
              ],
              [
                110.61250594566609,
                19.47118719692888
              ],
              [
                110.4270353646114,
                19.2294193136281
              ],
              [
                110.2987165779903,
                18.898843370634935
              ],
              [
                110.36146834800984,
                18.765576921660326
              ],
              [
                110.26251510093952,
                18.62562712307634
              ],
              [
                110.13131240318562,
                18.58723600979509
              ],
              [
                109.66907027672077,
                18.41473539944353
              ],
              [
                109.42965224693562,
                18.096622072417162
              ]
            ]
          ]
        ]
      }
    },
    {
      "type": "Feature",
      "id": "tang_37",
      "properties": {
        "name": "Sui Empire",
        "admin_level": "empire",
        "year": 700,
        "source": "historical-basemaps"
      },
      "geometry": {
        "type": "MultiPolygon",
        "coordinates": [
          [
            [
              [
                100.21611279335316,
                30.160581710718525
              ],
              [
                100.6798657360762,
                32.850348778512085
              ],
              [
                101.78956935299207,
                37.669821826010704
              ],
              [
                99.38135749645171,
                37.58062879428699
              ],
              [
                99.35231210297073,
                37.58789014265723
              ],
              [
                96.41333866302433,
                38.32263350264383
              ],
              [
                96.43020889949857,
                38.44916027620063
              ],
              [
                96.59883984011354,
                39.71389233081292
              ],
              [
                97.99009866828263,
                39.89939350790213
              ],
              [
                100.40161397044237,
                39.71389233081292
              ],
              [
                101.05086809025461,
                40.08489468499134
              ],
              [
                101.88562338715606,
                39.80664291935752
              ],
              [
                102.4421269184237,
                38.87913703391146
              ],
              [
                102.90587986114673,
                38.87913703391146
              ],
              [
                103.55513398095896,
                40.73414880480358
              ],
              [
                104.84145406657181,
                41.231001059500606
              ],
              [
                107.48854019920998,
                41.115910358081564
              ],
              [
                110.7110798389434,
                40.88572895524346
              ],
              [
                116.16921402302536,
                40.64139821625898
              ],
              [
                117.56047285119445,
                40.64139821625898
              ],
              [
                118.20972697100667,
                40.826899393348185
              ],
              [
                119.04448226790814,
                42.31090881006189
              ],
              [
                121.91975051279091,
                42.681911164240304
              ],
              [
                123.86751287222764,
                43.05291351841873
              ],
              [
                123.97500880206402,
                42.957361580786376
              ],
              [
                124.70226816912908,
                42.31090881006189
              ],
              [
                122.08235457847859,
                40.48801382656755
              ],
              [
                121.75361922691609,
                40.73695334072771
              ],
              [
                121.42673018883015,
                40.86432608242693
              ],
              [
                121.36801436851765,
                40.87061270352068
              ],
              [
                121.08527663658406,
                40.85723456021013
              ],
              [
                121.01060775230671,
                40.85068091030779
              ],
              [
                120.78842452476765,
                40.68381460781755
              ],
              [
                120.27274611900593,
                40.1517711507863
              ],
              [
                120.11272719810749,
                40.0811038839406
              ],
              [
                119.82381728599812,
                40.0421634542531
              ],
              [
                119.54778579185749,
                39.933044038969896
              ],
              [
                119.38549331138874,
                39.8434329855031
              ],
              [
                119.21067336509968,
                39.63902624722185
              ],
              [
                119.14941695640827,
                39.453979097563646
              ],
              [
                119.09059432457234,
                39.339103304106615
              ],
              [
                118.97764113853718,
                39.22413595791521
              ],
              [
                118.78126815269734,
                39.16635855313005
              ],
              [
                118.5593366951778,
                39.172286592680834
              ],
              [
                118.41243270347859,
                39.05088003750505
              ],
              [
                118.27459243248249,
                38.99961050625505
              ],
              [
                118.06992629478718,
                39.2541881429738
              ],
              [
                117.91011336754109,
                39.26024206753435
              ],
              [
                117.75288680504109,
                39.20253714199724
              ],
              [
                117.57505324791218,
                38.915336214262865
              ],
              [
                117.51010318821041,
                38.76556942634748
              ],
              [
                117.43950179527546,
                38.60277136440935
              ],
              [
                117.4790373177364,
                38.449916444975756
              ],
              [
                117.58946517418171,
                38.28448065396013
              ],
              [
                117.84067061851765,
                38.16392096157732
              ],
              [
                118.20027450035359,
                38.04361303921404
              ],
              [
                118.74464705894734,
                38.063834749419115
              ],
              [
                118.87524703453327,
                37.949428163725756
              ],
              [
                118.86725905845906,
                37.70737417813005
              ],
              [
                118.81164840172077,
                37.446132265288256
              ],
              [
                118.83700087974812,
                37.204215608794115
              ],
              [
                118.9546003670528,
                37.07711752529802
              ],
              [
                119.28440383384968,
                37.04596670742693
              ],
              [
                119.59885695884968,
                37.11661871548357
              ],
              [
                119.94069961021687,
                37.35291250820818
              ],
              [
                120.16939071129109,
                37.57625540371599
              ],
              [
                120.41806319664265,
                37.67865713711443
              ],
              [
                120.6581144661739,
                37.73646505947771
              ],
              [
                120.78740218590046,
                37.70487555142107
              ],
              [
                121.18977645347859,
                37.42548330898943
              ],
              [
                121.43434432457234,
                37.336837373930834
              ],
              [
                121.89484694908406,
                37.37596472378435
              ],
              [
                122.05756667564656,
                37.3635631429738
              ],
              [
                122.26948836754109,
                37.30032309170427
              ],
              [
                122.3928556771114,
                37.3005748617238
              ],
              [
                122.28126815269734,
                36.98200567837419
              ],
              [
                122.25558761070515,
                36.7336917745656
              ],
              [
                121.98012832115437,
                36.822249971587084
              ],
              [
                121.84669784019734,
                36.86017569180193
              ],
              [
                121.60988143394734,
                36.834228121001146
              ],
              [
                120.85548690269734,
                36.58444937344255
              ],
              [
                120.53731063316609,
                36.386519991118334
              ],
              [
                120.50483230064656,
                36.055568300444506
              ],
              [
                120.26971724937702,
                35.98509558315935
              ],
              [
                120.20366958091999,
                36.03586538906755
              ],
              [
                120.19649032066609,
                36.156737886626146
              ],
              [
                120.13933852623249,
                36.19480093594255
              ],
              [
                119.91377547691609,
                36.14344366665544
              ],
              [
                119.97557357261921,
                35.93359717007341
              ],
              [
                119.90734389732624,
                35.768058382231615
              ],
              [
                119.68883040855671,
                35.5449710714406
              ],
              [
                119.06016066978718,
                35.04126700039568
              ],
              [
                119.00324538658406,
                34.939471803862475
              ],
              [
                119.02086165855671,
                34.6919322835988
              ],
              [
                119.29992202232624,
                34.59093054409685
              ],
              [
                119.62047866295124,
                34.369384371001146
              ],
              [
                119.97359755943562,
                34.13522299404802
              ],
              [
                120.14943221519734,
                33.894332491118334
              ],
              [
                120.34028151939656,
                33.33605536099138
              ],
              [
                120.64058974693562,
                33.04462393398943
              ],
              [
                120.71938613365437,
                32.84798391934099
              ],
              [
                120.66086104820515,
                32.543117128569506
              ],
              [
                120.73830703209187,
                32.46073492642107
              ],
              [
                121.05076125572468,
                32.328048311430834
              ],
              [
                121.23053267906452,
                32.061767183501146
              ],
              [
                121.48366836021687,
                31.948009096342943
              ],
              [
                121.60595992515827,
                31.827626787382982
              ],
              [
                121.64503768394734,
                31.688027940947435
              ],
              [
                121.62330916832234,
                31.618154131132982
              ],
              [
                121.26826766441609,
                31.452338777739428
              ],
              [
                121.30788711021687,
                31.42066343899431
              ],
              [
                121.49887374351765,
                31.28138693447771
              ],
              [
                121.64023116539265,
                30.926120363432787
              ],
              [
                121.6318693489864,
                30.7927680837697
              ],
              [
                121.56893447349812,
                30.710101686674975
              ],
              [
                121.32843306968952,
                30.69054754849138
              ],
              [
                121.03547194908406,
                30.594703279692553
              ],
              [
                120.60866836021687,
                30.346181474882982
              ],
              [
                120.22693160484577,
                30.25015028591814
              ],
              [
                119.94366744468952,
                30.116218172270678
              ],
              [
                120.26755050133015,
                30.0216499197072
              ],
              [
                120.43786147545124,
                29.99661024685564
              ],
              [
                120.86273482750202,
                30.187980257231615
              ],
              [
                121.08252242515827,
                30.213830553252123
              ],
              [
                121.15524581383015,
                30.18857916470232
              ],
              [
                121.3912687630489,
                29.922397218901537
              ],
              [
                121.56523421715046,
                29.846555315215014
              ],
              [
                121.77031997154499,
                29.834281526762865
              ],
              [
                121.77436355064656,
                29.7644534933156
              ],
              [
                121.67039016197468,
                29.624536119658373
              ],
              [
                121.49843886802937,
                29.522582613188646
              ],
              [
                121.36191085289265,
                29.4143501150197
              ],
              [
                121.41146377037312,
                29.344604097563646
              ],
              [
                121.55819991539265,
                29.357616029936693
              ],
              [
                121.64916518638874,
                29.319707475859545
              ],
              [
                121.56675246666218,
                29.173480592924975
              ],
              [
                121.43251326988484,
                28.836659990507982
              ],
              [
                121.3458357186153,
                28.544379793364428
              ],
              [
                121.35852340172077,
                28.3856635915822
              ],
              [
                121.25970748375202,
                28.182250581938646
              ],
              [
                121.16591170738484,
                28.124896608549975
              ],
              [
                121.00856307457234,
                28.276980959135912
              ],
              [
                120.94237807701374,
                28.213330827910326
              ],
              [
                120.68650344322468,
                27.86989554043474
              ],
              [
                120.50590041588093,
                27.59010466213884
              ],
              [
                120.40887740562702,
                27.310491167265795
              ],
              [
                120.35180953453327,
                27.177013002592943
              ],
              [
                120.08409408043171,
                26.985940538603685
              ],
              [
                119.97135451744343,
                26.788837038237475
              ],
              [
                119.85703566978718,
                26.706031404692553
              ],
              [
                119.60071090172077,
                26.692800127226732
              ],
              [
                119.42890456627156,
                26.590831361967943
              ],
              [
                119.55488875816609,
                26.26721342678728
              ],
              [
                119.43603042076374,
                26.03833922024431
              ],
              [
                119.4703474373653,
                25.77168234463396
              ],
              [
                119.42860701988484,
                25.650926195341967
              ],
              [
                119.33538344810749,
                25.530067049223803
              ],
              [
                119.0958586067989,
                25.440650545317553
              ],
              [
                119.02366927574421,
                25.31348570461931
              ],
              [
                118.94535354088093,
                25.135495744902514
              ],
              [
                118.81294539879109,
                24.8494144308156
              ],
              [
                118.53120711754109,
                24.690036379057787
              ],
              [
                118.34562972496296,
                24.467338167387865
              ],
              [
                118.12423995445515,
                24.53039129849138
              ],
              [
                117.92490676353718,
                24.561727129179857
              ],
              [
                117.86126235435749,
                24.510774217802904
              ],
              [
                117.79609206627156,
                24.42171438809099
              ],
              [
                117.84909347008015,
                24.047095857817553
              ],
              [
                117.75324538658406,
                23.983384691435717
              ],
              [
                117.4058943123653,
                23.6904731618947
              ],
              [
                117.24540236900593,
                23.632972322661303
              ],
              [
                116.96271041343952,
                23.556155763823412
              ],
              [
                116.70913222740437,
                23.34602316494646
              ],
              [
                116.4520597786739,
                23.250201784331225
              ],
              [
                116.40389541099812,
                23.199287019926928
              ],
              [
                116.40021804283406,
                22.983321748930834
              ],
              [
                116.34061721275593,
                22.91333159084978
              ],
              [
                116.08469680259968,
                22.8873782980031
              ],
              [
                115.86004928062702,
                22.83609541531267
              ],
              [
                115.70670607994343,
                22.638873659331225
              ],
              [
                115.5425138802364,
                22.695684038359545
              ],
              [
                115.30879500816609,
                22.771407686430834
              ],
              [
                115.18552688072468,
                22.745751939970873
              ],
              [
                115.04353621910359,
                22.599364839751146
              ],
              [
                114.8478117317989,
                22.510015093047045
              ],
              [
                114.5587492317989,
                22.46494825955095
              ],
              [
                114.53746322105671,
                22.674502931792162
              ],
              [
                114.30387404869343,
                22.64860113735857
              ],
              [
                113.98913863609577,
                22.552667223173998
              ],
              [
                113.84516433189656,
                22.463439546782396
              ],
              [
                113.71678451011921,
                22.482215486723803
              ],
              [
                113.53598311851765,
                22.704146944243334
              ],
              [
                113.46257308433796,
                22.7738529073781
              ],
              [
                113.3766203255489,
                22.646646105009935
              ],
              [
                113.41929152916218,
                22.570508562285326
              ],
              [
                113.39908889244343,
                22.475192629057787
              ],
              [
                113.37770369957234,
                22.16390761013689
              ],
              [
                113.28367904136921,
                22.03033026333513
              ],
              [
                113.09672072838093,
                21.97912176724138
              ],
              [
                112.87131026695515,
                22.061215959746264
              ],
              [
                112.8155622811153,
                21.934060655791185
              ],
              [
                112.81533339927937,
                21.826074205595873
              ],
              [
                112.7495222420528,
                21.756068788725756
              ],
              [
                112.47251418541218,
                21.73007734890642
              ],
              [
                112.30786422203327,
                21.678912721831225
              ],
              [
                112.03952315758015,
                21.65928991909685
              ],
              [
                111.83120253990437,
                21.754121385771654
              ],
              [
                111.73399642418171,
                21.70945509548845
              ],
              [
                111.53608230064656,
                21.49307211514177
              ],
              [
                111.43422225425984,
                21.461099230009935
              ],
              [
                111.08559707115437,
                21.479402147490404
              ],
              [
                110.74959853599812,
                21.37706335659685
              ],
              [
                110.5664167733028,
                21.230577074248217
              ],
              [
                110.36344436119343,
                21.242852770048998
              ],
              [
                110.23882583091999,
                21.28069647427263
              ],
              [
                110.23382094810749,
                21.25528486843767
              ],
              [
                110.20257094810749,
                21.096425615507982
              ],
              [
                110.07242873619343,
                20.91828878994646
              ],
              [
                110.07721999595906,
                20.867482744414232
              ],
              [
                110.29317000816609,
                20.582110964018725
              ],
              [
                110.41411879966999,
                20.5251956808156
              ],
              [
                110.43365767906452,
                20.436297975737475
              ],
              [
                110.27128890465046,
                20.315265260893725
              ],
              [
                109.9282560677364,
                20.2446723806447
              ],
              [
                109.71159652183796,
                20.568162523466967
              ],
              [
                109.60293105552937,
                20.87918051357927
              ],
              [
                109.60814956138874,
                21.057046495634935
              ],
              [
                109.78676131675984,
                21.406783662993334
              ],
              [
                109.7798185677364,
                21.482984148222826
              ],
              [
                109.51607802818562,
                21.596772752959154
              ],
              [
                109.4143171639278,
                21.56479414578142
              ],
              [
                109.32187941978718,
                21.4312015401906
              ],
              [
                109.11740401695515,
                21.39900930996599
              ],
              [
                108.81303695152546,
                21.493642412382982
              ],
              [
                108.55499556968952,
                21.823396288115404
              ],
              [
                108.46664718101765,
                21.78510435696306
              ],
              [
                108.45892623375202,
                21.708860002715014
              ],
              [
                108.38727096031452,
                21.53085287686052
              ],
              [
                108.26594069908406,
                21.47342451687517
              ],
              [
                108.11670211265827,
                21.498511873442553
              ],
              [
                107.90002730797077,
                21.47900541897478
              ],
              [
                107.87561324547077,
                21.462068163115404
              ],
              [
                107.78977492759968,
                21.402537904936693
              ],
              [
                107.41781142662312,
                21.18578680630388
              ],
              [
                107.46579268883015,
                20.976270281035326
              ],
              [
                107.37433913658406,
                20.880792223173998
              ],
              [
                106.8070402474239,
                20.905006014067553
              ],
              [
                106.7462492317989,
                20.815949999052904
              ],
              [
                106.77157119224812,
                20.63813933010759
              ],
              [
                106.64429000328327,
                20.46636541958513
              ],
              [
                106.38092330406452,
                20.11008795376482
              ],
              [
                106.28142836998249,
                20.046357713896654
              ],
              [
                106.04167464683796,
                19.937850557524584
              ],
              [
                105.96486953209187,
                19.88052328701677
              ],
              [
                105.84338668297077,
                19.70240934963884
              ],
              [
                105.70696547935749,
                19.2828803884572
              ],
              [
                105.53258040855671,
                18.844211183745287
              ],
              [
                105.65331557701374,
                18.742835603911303
              ],
              [
                105.86413100670124,
                18.489196382719896
              ],
              [
                106.36444381187702,
                18.007497392851732
              ],
              [
                106.37519362877156,
                17.899535738188646
              ],
              [
                106.39383986900593,
                17.66453894253435
              ],
              [
                106.43306258629109,
                17.550279222685717
              ],
              [
                106.62225631187702,
                17.328355394560717
              ],
              [
                107.00507535871475,
                17.037970481707667
              ],
              [
                107.11497024009968,
                16.954610429961107
              ],
              [
                107.37534490539612,
                16.691467982144694
              ],
              [
                106.7912377557771,
                16.373123435248296
              ],
              [
                106.45149726589356,
                16.187961290965557
              ],
              [
                105.41690757366706,
                17.407225865757063
              ],
              [
                104.3810912608956,
                18.327951477109472
              ],
              [
                103.56705112280987,
                19.601992927144384
              ],
              [
                103.23424489264612,
                20.122862737146093
              ],
              [
                103.83338574659278,
                20.1435181479011
              ],
              [
                106.43040222584175,
                24.873798163675996
              ],
              [
                103.6826637888953,
                26.05637059211011
              ],
              [
                102.25662574133449,
                25.337551106399026
              ],
              [
                101.51462103297764,
                24.68829698658678
              ],
              [
                100.6798657360762,
                24.131793455319148
              ],
              [
                99.90849746972384,
                26.90871921418761
              ],
              [
                99.75235985063013,
                27.47081464292496
              ],
              [
                100.21611279335316,
                30.160581710718525
              ]
            ]
          ]
        ]
      }
    },
    {
      "type": "Feature",
      "id": "tang_39",
      "properties": {
        "name": "Koguryo",
        "admin_level": "empire",
        "year": 700,
        "source": "historical-basemaps"
      },
      "geometry": {
        "type": "MultiPolygon",
        "coordinates": [
          [
            [
              [
                129.64126113365435,
                41.655849062163256
              ],
              [
                129.5907087654903,
                41.46990545864763
              ],
              [
                129.6310682625606,
                41.277789674956225
              ],
              [
                129.5614118904903,
                41.07268866177263
              ],
              [
                129.47782424400592,
                40.682025514799975
              ],
              [
                129.17704299400592,
                40.63022192593279
              ],
              [
                129.01484206627154,
                40.52752264614763
              ],
              [
                128.7910261483028,
                40.35433920498552
              ],
              [
                128.44658950279498,
                40.06586798306169
              ],
              [
                128.23623183677935,
                39.96959265347185
              ],
              [
                127.93131545494343,
                39.9562259542531
              ],
              [
                127.67152694175984,
                39.86643561001482
              ],
              [
                127.55238631675984,
                39.764159761626146
              ],
              [
                127.44079879234577,
                39.623656831938646
              ],
              [
                127.2768888802364,
                39.22168692227068
              ],
              [
                127.40455916832234,
                39.07533987637224
              ],
              [
                125.29374221275593,
                38.68870123501482
              ],
              [
                125.02792647789265,
                38.81562002773943
              ],
              [
                125.21087935875202,
                39.211165987212084
              ],
              [
                125.29609206627156,
                39.36432608242693
              ],
              [
                125.20653823326374,
                39.485282503325365
              ],
              [
                124.92233565758015,
                39.61860617275896
              ],
              [
                124.85995772789265,
                39.61848028774919
              ],
              [
                124.68842605064656,
                39.60537680264177
              ],
              [
                124.54809096763874,
                39.541339479643725
              ],
              [
                124.44284347008015,
                39.57300528164568
              ],
              [
                124.20898726890827,
                39.738326631743334
              ],
              [
                124.14974443422744,
                39.821007217304334
              ],
              [
                124.13388350914265,
                39.84314306851091
              ],
              [
                124.11079128218776,
                39.875402442639334
              ],
              [
                124.10407546470906,
                39.884784303862475
              ],
              [
                123.91652968834187,
                39.80788382168474
              ],
              [
                123.36642745445515,
                39.749389253813646
              ],
              [
                123.03905776451374,
                39.67220266934099
              ],
              [
                122.02749160240437,
                39.25575979824724
              ],
              [
                121.74316695640827,
                39.08944662686052
              ],
              [
                121.48840621422077,
                38.87860449429216
              ],
              [
                121.21647933433796,
                38.756957613188646
              ],
              [
                121.06533339927937,
                38.7502818929738
              ],
              [
                121.12369826744343,
                38.86512335415544
              ],
              [
                121.51177504966999,
                39.171859346587084
              ],
              [
                121.66015151451374,
                39.33151587124529
              ],
              [
                121.44896224449421,
                39.38210257168474
              ],
              [
                121.28217605064656,
                39.3498912679738
              ],
              [
                121.21334365318562,
                39.48363836880388
              ],
              [
                121.23940566490437,
                39.553832613188646
              ],
              [
                121.66813186119343,
                39.90540655728044
              ],
              [
                121.78898909996296,
                40.07807882900896
              ],
              [
                122.03651717613484,
                40.264037691313646
              ],
              [
                122.10791305015827,
                40.35372122402849
              ],
              [
                122.08235457847859,
                40.48801382656755
              ],
              [
                124.70226816912908,
                42.31090881006189
              ],
              [
                127.29928464837805,
                43.23841469550794
              ],
              [
                129.24704700781476,
                45.18617705494466
              ],
              [
                130.54555524743924,
                45.37167823203387
              ],
              [
                132.12231525269752,
                44.62967352367703
              ],
              [
                132.8273573250606,
                42.86189993496599
              ],
              [
                132.59443191002154,
                42.89997442837419
              ],
              [
                132.48473647545123,
                42.880492769438646
              ],
              [
                132.3330946297481,
                42.963683687407396
              ],
              [
                132.18178847740435,
                43.19463690396013
              ],
              [
                131.88309768150592,
                43.071979128081225
              ],
              [
                131.67460158775592,
                43.026603304106615
              ],
              [
                131.86515334556842,
                43.29038199063005
              ],
              [
                131.58420852134967,
                43.21272238369646
              ],
              [
                131.35679152916217,
                42.99385031338396
              ],
              [
                131.06461623619342,
                42.74924048062029
              ],
              [
                130.4676161141231,
                42.298785768706225
              ],
              [
                130.43509963463092,
                42.276759706694506
              ],
              [
                129.8247175545528,
                41.8613658773488
              ],
              [
                129.64126113365435,
                41.655849062163256
              ]
            ]
          ]
        ]
      }
    },
    {
      "type": "Feature",
      "id": "tang_133",
      "properties": {
        "name": "Uyghurs",
        "admin_level": "empire",
        "year": 700,
        "source": "historical-basemaps"
      },
      "geometry": {
        "type": "MultiPolygon",
        "coordinates": [
          [
            [
              [
                76.09307777771365,
                40.628778118230464
              ],
              [
                84.55953914941693,
                40.57543205922698
              ],
              [
                84.76402939679582,
                40.57414359308707
              ],
              [
                96.59883984011354,
                39.71389233081292
              ],
              [
                96.41333866302432,
                38.32263350264383
              ],
              [
                99.35231210297073,
                37.58789014265722
              ],
              [
                97.8963835086838,
                36.75510495921225
              ],
              [
                91.48977627391785,
                37.78623870151423
              ],
              [
                81.92343985988904,
                36.502599943497096
              ],
              [
                76.09307777771365,
                40.628778118230464
              ]
            ]
          ]
        ]
      }
    },
    {
      "type": "Feature",
      "id": "tang_171",
      "properties": {
        "name": "Empire of Ghana",
        "admin_level": "empire",
        "year": 700,
        "source": "historical-basemaps"
      },
      "geometry": {
        "type": "MultiPolygon",
        "coordinates": [
          [
            [
              [
                -5.183796960593872,
                17.20081784693365
              ],
              [
                -4.547716178042412,
                15.106206151848557
              ],
              [
                -6.264794123357347,
                13.35109537946916
              ],
              [
                -8.909412972680991,
                12.636297987321042
              ],
              [
                -11.181130053221922,
                15.456828694060974
              ],
              [
                -9.908968488119,
                17.89393581159949
              ],
              [
                -7.455514041134801,
                19.443455602687497
              ],
              [
                -5.183796960593872,
                17.20081784693365
              ]
            ]
          ]
        ]
      }
    },
    {
      "type": "Feature",
      "id": "tang_251",
      "properties": {
        "name": "Chauhans",
        "admin_level": "empire",
        "year": 700,
        "source": "historical-basemaps"
      },
      "geometry": {
        "type": "MultiPolygon",
        "coordinates": [
          [
            [
              [
                73.63005952305456,
                27.14044247369888
              ],
              [
                73.80814663633566,
                27.23553570540424
              ],
              [
                74.48103061591101,
                27.355127960623182
              ],
              [
                74.75018420774116,
                27.662057622079956
              ],
              [
                74.92321151677481,
                27.440472039804245
              ],
              [
                74.80785997741903,
                27.132925670599676
              ],
              [
                75.0577883126899,
                27.150033895171607
              ],
              [
                75.30771664796073,
                27.406342315261753
              ],
              [
                75.53841972667226,
                27.798195318619655
              ],
              [
                75.94215011441749,
                27.900186848775697
              ],
              [
                76.11517742345114,
                28.307190280665907
              ],
              [
                75.73067229226524,
                28.42560805058289
              ],
              [
                75.28849139140144,
                28.64517542845523
              ],
              [
                74.85268517338432,
                28.895743596274965
              ],
              [
                76.92164753014544,
                29.387818748901008
              ],
              [
                76.93571506865712,
                29.23307582527246
              ],
              [
                78.54104452261383,
                27.627746371315755
              ],
              [
                76.30908035561204,
                27.045147438940386
              ],
              [
                74.1173958209184,
                26.544342617090322
              ],
              [
                73.63005952305456,
                27.14044247369888
              ]
            ]
          ]
        ]
      }
    }
  ]
}