{
  "type": "FeatureCollection",
  "name": "中华人民共和国整合阶段疆域 (1951-1996)",
  "period": "prc_1951",
  "valid_from": 1951,
  "valid_to": 1996,
  "description": "用于地图页时间轴联动演示的中华人民共和国整合阶段疆域 mock 数据。",
  "features": [
    {
      "type": "Feature",
      "id": "prc_1951_core",
      "properties": {
        "name": "共和国整合阶段核心疆域",
        "admin_level": "empire",
        "year": 1951,
        "source": "Map Timeline Demo Mock"
      },
      "geometry": {
        "type": "Polygon",
        "coordinates": [
          [
            [74.0, 20.0],
            [83.0, 18.0],
            [111.0, 19.0],
            [121.0, 22.0],
            [124.0, 30.0],
            [132.0, 47.0],
            [123.0, 50.0],
            [109.0, 49.0],
            [93.0, 48.0],
            [79.0, 35.0],
            [74.0, 20.0]
          ]
        ]
      }
    },
    {
      "type": "Feature",
      "id": "prc_1951_tibet",
      "properties": {
        "name": "西藏高原区域",
        "admin_level": "province",
        "year": 1951,
        "source": "Map Timeline Demo Mock"
      },
      "geometry": {
        "type": "Polygon",
        "coordinates": [
          [
            [78.0, 26.0],
            [86.0, 26.0],
            [95.0, 31.0],
            [94.0, 36.0],
            [83.0, 37.0],
            [78.0, 32.0],
            [78.0, 26.0]
          ]
        ]
      }
    }
  ]
}

