{
  "type": "FeatureCollection",
  "name": "晚清疆域 (1840-1912)",
  "period": "late_qing",
  "valid_from": 1840,
  "valid_to": 1912,
  "description": "用于地图页时间轴联动演示的晚清疆域 mock 数据。",
  "features": [
    {
      "type": "Feature",
      "id": "late_qing_empire",
      "properties": {
        "name": "晚清疆域",
        "admin_level": "empire",
        "year": 1840,
        "source": "Map Timeline Demo Mock"
      },
      "geometry": {
        "type": "Polygon",
        "coordinates": [
          [
            [73.0, 28.0],
            [84.0, 19.0],
            [108.0, 18.0],
            [122.0, 22.0],
            [128.0, 35.0],
            [135.0, 48.0],
            [126.0, 54.0],
            [110.0, 54.0],
            [91.0, 50.0],
            [73.0, 45.0],
            [73.0, 28.0]
          ]
        ]
      }
    }
  ]
}

